{
  "type": "FeatureCollection",
  "features": [
    {
      "type": "Feature",
      "properties": {
        "norad_id": 66989,
        "name": "CZ-4B R/B",
        "group": "last-30-days",
        "lat": 78.22668290086648,
        "lon": 17.895215367559246,
        "alt_km": 365.4927732771748,
        "timestamp": "2025-12-17T13:48:36.282241+00:00",
        "meta_object_name": "CZ-4B R/B",
        "meta_object_id": "2025-289B",
        "meta_epoch": "2025-12-17T04:17:02.385312",
        "meta_mean_motion": 15.68312597,
        "meta_eccentricity": 0.0145527,
        "meta_inclination": 97.5267,
        "meta_ra_of_asc_node": 56.8439,
        "meta_arg_of_pericenter": 346.1492,
        "meta_mean_anomaly": 13.5794,
        "meta_ephemeris_type": 0,
        "meta_classification_type": "U",
        "meta_norad_cat_id": 66989,
        "meta_element_set_no": 999,
        "meta_rev_at_epoch": 126,
        "meta_bstar": 0.00055761361,
        "meta_mean_motion_dot": 0.00114176,
        "meta_mean_motion_ddot": 5.950342e-06,
        "tle_line1": "1 66989U 25289B   25351.17849983  .00114176  59503-5  55761-3 0  9993",
        "tle_line2": "2 66989  97.5267  56.8439 0145527 346.1492  13.5794 15.68312597  1269"
      },
      "geometry": {
        "type": "Point",
        "coordinates": [
          17.895215367559246,
          78.22668290086648
        ]
      }
    },
    {
      "type": "Feature",
      "properties": {
        "norad_id": 66990,
        "name": "TJS-22",
        "group": "last-30-days",
        "lat": -12.321985736693184,
        "lon": -97.20595225343322,
        "alt_km": 21457.22894058525,
        "timestamp": "2025-12-17T13:48:36.282252+00:00",
        "meta_object_name": "TJS-22",
        "meta_object_id": "2025-290A",
        "meta_epoch": "2025-12-10T07:11:32.845344",
        "meta_mean_motion": 2.15443148,
        "meta_eccentricity": 0.6664534,
        "meta_inclination": 20.1261,
        "meta_ra_of_asc_node": 301.1464,
        "meta_arg_of_pericenter": 180.6877,
        "meta_mean_anomaly": 177.6237,
        "meta_ephemeris_type": 0,
        "meta_classification_type": "U",
        "meta_norad_cat_id": 66990,
        "meta_element_set_no": 999,
        "meta_rev_at_epoch": 3,
        "meta_bstar": 0.079788243,
        "meta_mean_motion_dot": -3.8e-07,
        "meta_mean_motion_ddot": 0,
        "tle_line1": "1 66990U 25290A   25344.29968571 -.00000038  00000+0  79788-1 0  9994",
        "tle_line2": "2 66990  20.1261 301.1464 6664534 180.6877 177.6237  2.15443148    32"
      },
      "geometry": {
        "type": "Point",
        "coordinates": [
          -97.20595225343322,
          -12.321985736693184
        ]
      }
    },
    {
      "type": "Feature",
      "properties": {
        "norad_id": 66991,
        "name": "CZ-3B R/B",
        "group": "last-30-days",
        "lat": 22.13742758853094,
        "lon": -11.718057136783877,
        "alt_km": 15306.120894037416,
        "timestamp": "2025-12-17T13:48:36.282263+00:00",
        "meta_object_name": "CZ-3B R/B",
        "meta_object_id": "2025-290B",
        "meta_epoch": "2025-12-15T17:23:33.043200",
        "meta_mean_motion": 2.38388611,
        "meta_eccentricity": 0.7240884,
        "meta_inclination": 28.4636,
        "meta_ra_of_asc_node": 300.4666,
        "meta_arg_of_pericenter": 182.7002,
        "meta_mean_anomaly": 168.625,
        "meta_ephemeris_type": 0,
        "meta_classification_type": "U",
        "meta_norad_cat_id": 66991,
        "meta_element_set_no": 999,
        "meta_rev_at_epoch": 16,
        "meta_bstar": 0.00075879,
        "meta_mean_motion_dot": 0.00057911,
        "meta_mean_motion_ddot": -2.0514e-07,
        "tle_line1": "1 66991U 25290B   25349.72468800  .00057911 -20514-6  75879-3 0  9998",
        "tle_line2": "2 66991  28.4636 300.4666 7240884 182.7002 168.6250  2.38388611   165"
      },
      "geometry": {
        "type": "Point",
        "coordinates": [
          -11.718057136783877,
          22.13742758853094
        ]
      }
    },
    {
      "type": "Feature",
      "properties": {
        "norad_id": 66993,
        "name": "2025-292A",
        "group": "last-30-days",
        "lat": -69.74532240080987,
        "lon": -137.29121365710958,
        "alt_km": 550.7031377478579,
        "timestamp": "2025-12-17T13:48:36.282276+00:00",
        "meta_object_name": "2025-292A",
        "meta_object_id": "2025-292A",
        "meta_epoch": "2025-12-17T06:18:41.790816",
        "meta_mean_motion": 15.04527526,
        "meta_eccentricity": 0.00137866,
        "meta_inclination": 97.6535,
        "meta_ra_of_asc_node": 63.7706,
        "meta_arg_of_pericenter": 255.7668,
        "meta_mean_anomaly": 104.2027,
        "meta_ephemeris_type": 0,
        "meta_classification_type": "U",
        "meta_norad_cat_id": 66993,
        "meta_element_set_no": 999,
        "meta_rev_at_epoch": 107,
        "meta_bstar": 0.00024351215,
        "meta_mean_motion_dot": 3.356e-05,
        "meta_mean_motion_ddot": 0,
        "tle_line1": "1 66993U 25292A   25351.26298369  .00003356  00000+0  24351-3 0  9998",
        "tle_line2": "2 66993  97.6535  63.7706 0013786 255.7668 104.2027 15.04527526  1074"
      },
      "geometry": {
        "type": "Point",
        "coordinates": [
          -137.29121365710958,
          -69.74532240080987
        ]
      }
    },
    {
      "type": "Feature",
      "properties": {
        "norad_id": 66994,
        "name": "2025-292B",
        "group": "last-30-days",
        "lat": -70.87139946936337,
        "lon": -138.73049143309294,
        "alt_km": 550.5615058082994,
        "timestamp": "2025-12-17T13:48:36.282286+00:00",
        "meta_object_name": "2025-292B",
        "meta_object_id": "2025-292B",
        "meta_epoch": "2025-12-16T17:32:14.053344",
        "meta_mean_motion": 15.04568038,
        "meta_eccentricity": 0.00138285,
        "meta_inclination": 97.6528,
        "meta_ra_of_asc_node": 63.2425,
        "meta_arg_of_pericenter": 260.0817,
        "meta_mean_anomaly": 99.8848,
        "meta_ephemeris_type": 0,
        "meta_classification_type": "U",
        "meta_norad_cat_id": 66994,
        "meta_element_set_no": 999,
        "meta_rev_at_epoch": 99,
        "meta_bstar": 0.00028326555,
        "meta_mean_motion_dot": 3.919e-05,
        "meta_mean_motion_ddot": 0,
        "tle_line1": "1 66994U 25292B   25350.73071821  .00003919  00000+0  28327-3 0  9994",
        "tle_line2": "2 66994  97.6528  63.2425 0013828 260.0817  99.8848 15.04568038   995"
      },
      "geometry": {
        "type": "Point",
        "coordinates": [
          -138.73049143309294,
          -70.87139946936337
        ]
      }
    },
    {
      "type": "Feature",
      "properties": {
        "norad_id": 66995,
        "name": "2025-292C",
        "group": "last-30-days",
        "lat": -71.05784711016098,
        "lon": -138.9870805274222,
        "alt_km": 550.4709021424751,
        "timestamp": "2025-12-17T13:48:36.282295+00:00",
        "meta_object_name": "2025-292C",
        "meta_object_id": "2025-292C",
        "meta_epoch": "2025-12-17T06:18:20.057760",
        "meta_mean_motion": 15.04590609,
        "meta_eccentricity": 0.00138461,
        "meta_inclination": 97.6535,
        "meta_ra_of_asc_node": 63.7709,
        "meta_arg_of_pericenter": 256.4756,
        "meta_mean_anomaly": 103.4927,
        "meta_ephemeris_type": 0,
        "meta_classification_type": "U",
        "meta_norad_cat_id": 66995,
        "meta_element_set_no": 999,
        "meta_rev_at_epoch": 107,
        "meta_bstar": 0.00031903928,
        "meta_mean_motion_dot": 4.425e-05,
        "meta_mean_motion_ddot": 0,
        "tle_line1": "1 66995U 25292C   25351.26273215  .00004425  00000+0  31904-3 0  9993",
        "tle_line2": "2 66995  97.6535  63.7709 0013846 256.4756 103.4927 15.04590609  1074"
      },
      "geometry": {
        "type": "Point",
        "coordinates": [
          -138.9870805274222,
          -71.05784711016098
        ]
      }
    },
    {
      "type": "Feature",
      "properties": {
        "norad_id": 66996,
        "name": "2025-292D",
        "group": "last-30-days",
        "lat": -72.23162636647565,
        "lon": -140.72782850831172,
        "alt_km": 550.9529961005283,
        "timestamp": "2025-12-17T13:48:36.282305+00:00",
        "meta_object_name": "2025-292D",
        "meta_object_id": "2025-292D",
        "meta_epoch": "2025-12-17T07:53:45.945600",
        "meta_mean_motion": 15.04627612,
        "meta_eccentricity": 0.0013025,
        "meta_inclination": 97.6528,
        "meta_ra_of_asc_node": 63.8366,
        "meta_arg_of_pericenter": 258.9237,
        "meta_mean_anomaly": 101.0525,
        "meta_ephemeris_type": 0,
        "meta_classification_type": "U",
        "meta_norad_cat_id": 66996,
        "meta_element_set_no": 999,
        "meta_rev_at_epoch": 108,
        "meta_bstar": 0.00020206121,
        "meta_mean_motion_dot": 2.781e-05,
        "meta_mean_motion_ddot": 0,
        "tle_line1": "1 66996U 25292D   25351.32900400  .00002781  00000+0  20206-3 0  9990",
        "tle_line2": "2 66996  97.6528  63.8366 0013025 258.9237 101.0525 15.04627612  1081"
      },
      "geometry": {
        "type": "Point",
        "coordinates": [
          -140.72782850831172,
          -72.23162636647565
        ]
      }
    }
  ]
}